SAC-D
1 37673U 11024A   13309.43158588 +.00000000 +00000+0 +14066-4 6  9055
2 37673  98.0122 314.8540 0001402  84.4491 149.8857 14.72327752128847
